{
    "links": {
        "self": "http://www.neowsapp.com/rest/v1/neo/54097467?api_key=iIulBulltgU6a56xZRHN4H3l9WmuAYTsLGpBGhQ2"
    },
    "id": "54097467",
    "neo_reference_id": "54097467",
    "name": "(2020 WS5)",
    "designation": "2020 WS5",
    "nasa_jpl_url": "http://ssd.jpl.nasa.gov/sbdb.cgi?sstr=54097467",
    "absolute_magnitude_h": 20.988,
    "estimated_diameter": {
        "kilometers": {
            "estimated_diameter_min": 0.1686378189,
            "estimated_diameter_max": 0.3770856267
        },
        "meters": {
            "estimated_diameter_min": 168.6378189172,
            "estimated_diameter_max": 377.0856266761
        },
        "miles": {
            "estimated_diameter_min": 0.1047866502,
            "estimated_diameter_max": 0.2343100729
        },
        "feet": {
            "estimated_diameter_min": 553.2737018163,
            "estimated_diameter_max": 1237.1576074241
        }
    },
    "is_potentially_hazardous_asteroid": false,
    "close_approach_data": [
        {
            "close_approach_date": "2020-12-19",
            "close_approach_date_full": "2020-Dec-19 04:57",
            "epoch_date_close_approach": 1608353820000,
            "relative_velocity": {
                "kilometers_per_second": "22.7821969545",
                "kilometers_per_hour": "82015.9090363192",
                "miles_per_hour": "50961.4963675951"
            },
            "miss_distance": {
                "astronomical": "0.198185596",
                "lunar": "77.094196844",
                "kilometers": "29648143.02628052",
                "miles": "18422501.813770376"
            },
            "orbiting_body": "Earth"
        }
    ],
    "orbital_data": {
        "orbit_id": "6",
        "orbit_determination_date": "2020-12-08 05:24:05",
        "first_observation_date": "2020-11-27",
        "last_observation_date": "2020-12-07",
        "data_arc_in_days": 10,
        "observations_used": 36,
        "orbit_uncertainty": "9",
        "minimum_orbit_intersection": ".193565",
        "jupiter_tisserand_invariant": "2.893",
        "epoch_osculation": "2459184.5",
        "eccentricity": ".5528133452504651",
        "semi_major_axis": "2.597807775219775",
        "inclination": "40.8886550053705",
        "ascending_node_longitude": "84.63808657813506",
        "orbital_period": "1529.357246852034",
        "perihelion_distance": "1.161704968682863",
        "perihelion_argument": "16.99211751359059",
        "aphelion_distance": "4.033910581756688",
        "perihelion_time": "2459219.135322506142",
        "mean_anomaly": "351.8470873120874",
        "mean_motion": ".2353930062717584",
        "equinox": "J2000",
        "orbit_class": {
            "orbit_class_type": "AMO",
            "orbit_class_description": "Near-Earth asteroid orbits similar to that of 1221 Amor",
            "orbit_class_range": "1.017 AU < q (perihelion) < 1.3 AU"
        }
    },
    "is_sentry_object": false
}